[{"OBJECT_NAME":"STARLINK-5328","OBJECT_ID":"2023-021AF","EPOCH":"2026-03-09T15:26:48.457824","MEAN_MOTION":14.98333056,"ECCENTRICITY":0.0003409,"INCLINATION":70.0005,"RA_OF_ASC_NODE":164.7339,"ARG_OF_PERICENTER":271.1096,"MEAN_ANOMALY":88.9673,"EPHEMERIS_TYPE":0,"CLASSIFICATION_TYPE":"U","NORAD_CAT_ID":55657,"ELEMENT_SET_NO":999,"REV_AT_EPOCH":16927,"BSTAR":-2.847e-5,"MEAN_MOTION_DOT":-4.33e-6,"MEAN_MOTION_DDOT":0},{"OBJECT_NAME":"NIGERIASAT-1","OBJECT_ID":"2003-042C","EPOCH":"2026-03-09T23:18:28.284480","MEAN_MOTION":14.90021828,"ECCENTRICITY":0.00412391,"INCLINATION":98.0062,"RA_OF_ASC_NODE":259.4679,"ARG_OF_PERICENTER":255.6174,"MEAN_ANOMALY":104.0464,"EPHEMERIS_TYPE":0,"CLASSIFICATION_TYPE":"U","NORAD_CAT_ID":27941,"ELEMENT_SET_NO":999,"REV_AT_EPOCH":20905,"BSTAR":0.0001905973,"MEAN_MOTION_DOT":1.807e-5,"MEAN_MOTION_DDOT":0}]
